NORAD_CAT_ID,OBJECT_NAME,OBJECT_TYPE,EPOCH,MEAN_MOTION,ECCENTRICITY,INCLINATION,RA_OF_ASC_NODE,ARG_OF_PERICENTER,MEAN_ANOMALY,BSTAR,MEAN_MOTION_DOT,MEAN_MOTION_DDOT,TLE_LINE0,TLE_LINE1,TLE_LINE2,SEMIMAJOR_AXIS,PERIOD,APOGEE,PERIGEE,DECAYED
52383.0,STARLINK-3811,PAYLOAD,2022-06-22 16:00:00,15.73187114,0.0003669,53.2131,170.0724,5.836,174.3457,2.1802e-05,2.436e-05,0.0,0 STARLINK-3811,1 52383U 22045BE  22173.66667824  .00002436  00000-0  21802-4 0  9996,2 52383  53.2131 170.0724 0003669   5.8360 174.3457 15.73187114 11017,6727.932,91.534,352.265,347.32800000000015,0.0
52383.0,STARLINK-3811,PAYLOAD,2022-06-22 22:00:00,15.73184101,0.0003447,53.2131,168.8341,6.6603,150.2194,0.00065002,0.00091563,0.0,0 STARLINK-3811,1 52383U 22045BE  22173.91667824  .00091563  00000-0  65002-3 0  9992,2 52383  53.2131 168.8341 0003447   6.6603 150.2194 15.73184101 11058,6727.941,91.534,352.125,347.486,0.0
52383.0,STARLINK-3811,PAYLOAD,2022-06-23 06:00:00,15.73260383,0.0003663,53.2132,167.1867,6.2964,239.5133,-0.00059582,-0.00083668,0.0,0 STARLINK-3811,1 52383U 22045BE  22174.25001157 -.00083668  00000-0 -59582-3 0  9996,2 52383  53.2132 167.1867 0003663   6.2964 239.5133 15.73260383 11107,6727.723000000001,91.53,352.052,347.124,0.0
52383.0,STARLINK-3811,PAYLOAD,2022-06-23 14:00:01,15.73205397,0.000334,53.2173,165.5331,5.4571,329.2541,-1.319e-05,-2.475e-05,0.0,0 STARLINK-3811,1 52383U 22045BE  22174.58334491 -.00002475  00000-0 -13190-4 0  9995,2 52383  53.2173 165.5331 0003340   5.4571 329.2541 15.73205397  1302,6727.88,91.533,351.992,347.49800000000016,0.0
52383.0,STARLINK-3811,PAYLOAD,2022-06-23 22:00:00,15.73178866,0.0003516,53.2135,163.8851,9.3844,54.3882,0.00038633,0.0005391,0.0,0 STARLINK-3811,1 52383U 22045BE  22174.91667824  .00053910  00000-0  38633-3 0  9997,2 52383  53.2135 163.8851 0003516   9.3844  54.3882 15.73178866 11214,6727.955,91.534,352.186,347.455,0.0
52383.0,STARLINK-3811,PAYLOAD,2022-06-24 14:00:01,15.73193402,0.0003728,53.2127,160.5873,8.9591,232.6792,-2.4237e-05,-4.024e-05,0.0,0 STARLINK-3811,1 52383U 22045BE  22175.58334491 -.00004024  00000-0 -24237-4 0  9992,2 52383  53.2127 160.5873 0003728   8.9591 232.6792 15.73193402 11317,6727.9140000000025,91.534,352.287,347.271,0.0
52383.0,STARLINK-3811,PAYLOAD,2022-06-24 22:00:01,15.73219598,0.0003487,53.2129,158.9362,12.2325,318.3893,-0.000383,-0.00054096,0.0,0 STARLINK-3811,1 52383U 22045BE  22175.91668981 -.00054096  00000-0 -38300-3 0  9992,2 52383  53.2129 158.9362 0003487  12.2325 318.3893 15.73219598  1305,6727.839,91.532,352.05,347.358,0.0
52383.0,STARLINK-3811,PAYLOAD,2022-06-25 14:00:01,15.73197419,0.0003751,53.2131,155.6386,15.6278,132.7268,1.1384e-05,9.74e-06,0.0,0 STARLINK-3811,1 52383U 22045BE  22176.58334491  .00000974  00000-0  11384-4 0  9990,2 52383  53.2131 155.6386 0003751  15.6278 132.7268 15.73197419  1307,6727.903,91.533,352.291,347.244,0.0
52383.0,STARLINK-3811,PAYLOAD,2022-06-25 22:00:00,15.73208481,0.0003575,53.2135,153.9875,18.2551,219.0349,0.00054079,0.00076012,0.0,0 STARLINK-3811,1 52383U 22045BE  22176.91667824  .00076012  00000-0  54079-3 0  9999,2 52383  53.2135 153.9875 0003575  18.2551 219.0349 15.73208481 11528,6727.871,91.533,352.141,347.331,0.0
52383.0,STARLINK-3811,PAYLOAD,2022-06-26 14:00:01,15.7326352,0.0003641,53.2129,150.6893,13.4501,41.8635,-0.0006417,-0.00090008,0.0,0 STARLINK-3811,1 52383U 22045BE  22177.58335648 -.00090008  00000-0 -64170-3 0  9995,2 52383  53.2129 150.6893 0003641  13.4501  41.8635 15.73263520 11637,6727.714,91.529,352.029,347.13,0.0
52383.0,STARLINK-3811,PAYLOAD,2022-06-26 22:00:00,15.73331743,0.0003438,53.2149,149.0364,13.401,130.7713,-0.0029428,-0.00397202,0.0,0 STARLINK-3811,1 52383U 22045BE  22177.91667824 -.00397202  00000-0 -29428-2 0  9998,2 52383  53.2149 149.0364 0003438  13.4010 130.7713 15.73331743  1304,6727.52,91.526,351.6980000000001,347.07199999999995,0.0
52383.0,STARLINK-3811,PAYLOAD,2022-06-27 06:00:00,15.73169319,0.0003631,53.2134,147.3913,9.9591,223.1803,0.00031371,0.00043588,0.0,0 STARLINK-3811,1 52383U 22045BE  22178.25001157  .00043588  00000-0  31371-3 0  9991,2 52383  53.2134 147.3913 0003631   9.9591 223.1803 15.73169319 11731,6727.983,91.535,352.291,347.405,0.0
52383.0,STARLINK-3811,PAYLOAD,2022-06-27 14:00:01,15.73226218,0.0003487,53.2135,145.7404,8.0279,314.0204,-0.0006387,-0.00089449,0.0,0 STARLINK-3811,1 52383U 22045BE  22178.58334491 -.00089449  00000-0 -63870-3 0  9994,2 52383  53.2135 145.7404 0003487   8.0279 314.0204 15.73226218  1300,6727.82,91.532,352.031,347.339,0.0
52383.0,STARLINK-3811,PAYLOAD,2022-06-27 22:00:00,15.73208581,0.0003408,53.2141,144.0899,10.739,40.2311,-0.00024518,-0.00034915,0.0,0 STARLINK-3811,1 52383U 22045BE  22178.91667824 -.00034915  00000-0 -24518-3 0  9994,2 52383  53.2141 144.0899 0003408  10.7390  40.2311 15.73208581 11844,6727.871,91.533,352.029,347.4430000000001,0.0
52383.0,STARLINK-3811,PAYLOAD,2022-06-28 06:00:00,15.73132104,0.0003729,53.214,142.4424,13.6535,126.2236,0.00021559,0.00029662,0.0,0 STARLINK-3811,1 52383U 22045BE  22179.25001157  .00029662  00000-0  21559-3 0  9996,2 52383  53.2140 142.4424 0003729  13.6535 126.2236 15.73132104 11891,6728.089,91.537,352.463,347.445,0.0
52383.0,STARLINK-3811,PAYLOAD,2022-06-28 14:00:01,15.73169372,0.0003591,53.2137,140.7918,14.3771,214.352,-4.0551e-05,-6.305e-05,0.0,0 STARLINK-3811,1 52383U 22045BE  22179.58334491 -.00006305  00000-0 -40551-4 0  9997,2 52383  53.2137 140.7918 0003591  14.3771 214.3520 15.73169372  1300,6727.982,91.535,352.264,347.431,0.0
52383.0,STARLINK-3811,PAYLOAD,2022-06-28 22:00:00,15.73184248,0.0003421,53.2141,139.1418,16.5686,301.0474,0.0002936,0.00040765,0.0,0 STARLINK-3811,1 52383U 22045BE  22179.91667824  .00040765  00000-0  29360-3 0  9993,2 52383  53.2141 139.1418 0003421  16.5686 301.0474 15.73184248  1304,6727.94,91.534,352.107,347.50300000000016,0.0
52383.0,STARLINK-3811,PAYLOAD,2022-06-29 14:00:01,15.73235972,0.0003561,53.2145,135.8433,16.415,119.0547,1.7419e-05,1.825e-05,0.0,0 STARLINK-3811,1 52383U 22045BE  22180.58334491  .00001825  00000-0  17419-4 0  9996,2 52383  53.2145 135.8433 0003561  16.4150 119.0547 15.73235972  1307,6727.793000000002,91.531,352.05300000000005,347.26199999999994,0.0
52383.0,STARLINK-3811,PAYLOAD,2022-06-29 22:00:00,15.73276851,0.000343,53.2149,134.1932,18.3001,206.1275,-0.00040186,-0.00056848,0.0,0 STARLINK-3811,1 52383U 22045BE  22180.91667824 -.00056848  00000-0 -40186-3 0  9995,2 52383  53.2149 134.1932 0003430  18.3001 206.1275 15.73276851  1305,6727.676,91.529,351.849,347.233,0.0
52383.0,STARLINK-3811,PAYLOAD,2022-06-30 14:00:01,15.73227183,0.0003451,53.2147,130.8945,13.4723,28.9102,-0.00051138,-0.00071892,0.0,0 STARLINK-3811,1 52383U 22045BE  22181.58334491 -.00071892  00000-0 -51138-3 0  9995,2 52383  53.2147 130.8945 0003451  13.4723  28.9102 15.73227183  1303,6727.818,91.532,352.004,347.361,0.0
52383.0,STARLINK-3811,PAYLOAD,2022-06-30 22:00:00,15.73191312,0.0003372,53.215,129.2449,14.6245,116.6797,0.00013657,0.00018584,0.0,0 STARLINK-3811,1 52383U 22045BE  22181.91667824  .00018584  00000-0  13657-3 0  9992,2 52383  53.2150 129.2449 0003372  14.6245 116.6797 15.73191312  1301,6727.92,91.534,352.05400000000014,347.516,0.0
52383.0,STARLINK-3811,PAYLOAD,2022-07-01 14:00:01,15.73242227,0.0003432,53.2152,125.9461,13.7482,295.4353,-0.00013535,-0.00019616,0.0,0 STARLINK-3811,1 52383U 22045BE  22182.58334491 -.00019616  00000-0 -13535-3 0  9991,2 52383  53.2152 125.9461 0003432  13.7482 295.4353 15.73242227 12410,6727.775,91.531,351.949,347.331,0.0
52383.0,STARLINK-3811,PAYLOAD,2022-07-01 22:00:00,15.73228417,0.0003388,53.2155,124.2963,14.1541,23.9924,-0.00035585,-0.00050345,0.0,0 STARLINK-3811,1 52383U 22045BE  22182.91667824 -.00050345  00000-0 -35585-3 0  9990,2 52383  53.2155 124.2963 0003388  14.1541  23.9924 15.73228417  1302,6727.814,91.532,351.959,347.4,0.0
52383.0,STARLINK-3811,PAYLOAD,2022-07-02 14:00:01,15.73239736,0.0003409,53.2153,120.9974,11.1192,204.938,-0.00047858,-0.00067392,0.0,0 STARLINK-3811,1 52383U 22045BE  22183.58334491 -.00067392  00000-0 -47858-3 0  9991,2 52383  53.2153 120.9974 0003409  11.1192 204.9380 15.73239736  1301,6727.781999999997,91.531,351.94,347.353,0.0
52383.0,STARLINK-3811,PAYLOAD,2022-07-02 22:00:00,15.73226268,0.0003304,53.2153,119.3481,10.7575,294.2593,0.00013085,0.00017805,0.0,0 STARLINK-3811,1 52383U 22045BE  22183.91667824  .00017805  00000-0  13085-3 0  9994,2 52383  53.2153 119.3481 0003304  10.7575 294.2593 15.73226268  1304,6727.82,91.532,351.908,347.462,0.0
52383.0,STARLINK-3811,PAYLOAD,2022-07-03 00:00:00,15.73234212,0.0003389,53.2152,118.9363,10.5423,46.7132,5.401600000000001e-05,6.976e-05,0.0,0 STARLINK-3811,1 52383U 22045BE  22184.00001157  .00006976  00000-0  54016-4 0  9993,2 52383  53.2152 118.9363 0003389  10.5423  46.7132 15.73234212 12646,6727.7980000000025,91.531,351.9430000000001,347.3830000000001,0.0
52383.0,STARLINK-3811,PAYLOAD,2022-07-03 06:00:00,15.73259154,0.0003518,53.215,117.7002,8.6444,25.3714,0.00017563,0.00024165,0.0,0 STARLINK-3811,1 52383U 22045BE  22184.25001157  .00024165  00000-0  17563-3 0  9995,2 52383  53.2150 117.7002 0003518   8.6444  25.3714 15.73259154 12681,6727.727,91.53,351.958,347.225,0.0
52383.0,STARLINK-3811,PAYLOAD,2022-07-03 14:00:01,15.73238472,0.0003283,53.2153,116.0485,5.2682,117.7453,-0.00068476,-0.00095828,0.0,0 STARLINK-3811,1 52383U 22045BE  22184.58334491 -.00095828  00000-0 -68476-3 0  9996,2 52383  53.2153 116.0485 0003283   5.2682 117.7453 15.73238472  1300,6727.785,91.531,351.8590000000001,347.44199999999995,0.0
52383.0,STARLINK-3811,PAYLOAD,2022-07-03 22:00:00,15.73190082,0.0003294,53.2156,114.3992,6.5043,205.4313,-0.00098763,-0.00136991,0.0,0 STARLINK-3811,1 52383U 22045BE  22184.91667824 -.00136991  00000-0 -98763-3 0  9991,2 52383  53.2156 114.3992 0003294   6.5043 205.4313 15.73190082  1308,6727.9230000000025,91.534,352.005,347.57199999999995,0.0
